{
    "links": {
        "self": "http://www.neowsapp.com/rest/v1/neo/3601455?api_key=iIulBulltgU6a56xZRHN4H3l9WmuAYTsLGpBGhQ2"
    },
    "id": "3601455",
    "neo_reference_id": "3601455",
    "name": "(2012 FB1)",
    "designation": "2012 FB1",
    "nasa_jpl_url": "http://ssd.jpl.nasa.gov/sbdb.cgi?sstr=3601455",
    "absolute_magnitude_h": 24.1,
    "estimated_diameter": {
        "kilometers": {
            "estimated_diameter_min": 0.040230458,
            "estimated_diameter_max": 0.0899580388
        },
        "meters": {
            "estimated_diameter_min": 40.2304579834,
            "estimated_diameter_max": 89.9580388169
        },
        "miles": {
            "estimated_diameter_min": 0.0249980399,
            "estimated_diameter_max": 0.0558973165
        },
        "feet": {
            "estimated_diameter_min": 131.9896957704,
            "estimated_diameter_max": 295.1379320721
        }
    },
    "is_potentially_hazardous_asteroid": false,
    "close_approach_data": [
        {
            "close_approach_date": "2012-03-15",
            "close_approach_date_full": "2012-Mar-15 02:03",
            "epoch_date_close_approach": 1331776980000,
            "relative_velocity": {
                "kilometers_per_second": "7.7856494289",
                "kilometers_per_hour": "28028.337944131",
                "miles_per_hour": "17415.7192075629"
            },
            "miss_distance": {
                "astronomical": "0.1846134381",
                "lunar": "71.8146274209",
                "kilometers": "27617777.113136847",
                "miles": "17160890.9370166086"
            },
            "orbiting_body": "Earth"
        }
    ],
    "orbital_data": {
        "orbit_id": "6",
        "orbit_determination_date": "2017-04-06 08:50:27",
        "first_observation_date": "2012-03-17",
        "last_observation_date": "2012-03-30",
        "data_arc_in_days": 13,
        "observations_used": 21,
        "orbit_uncertainty": "8",
        "minimum_orbit_intersection": ".184323",
        "jupiter_tisserand_invariant": "4.037",
        "epoch_osculation": "2456008.5",
        "eccentricity": ".3280742051326037",
        "semi_major_axis": "1.748560597565098",
        "inclination": "14.22409484348152",
        "ascending_node_longitude": "358.179690366992",
        "orbital_period": "844.5385113472342",
        "perihelion_distance": "1.174902969392738",
        "perihelion_argument": "167.8556150886498",
        "aphelion_distance": "2.322218225737458",
        "perihelion_time": "2455991.574429943453",
        "mean_anomaly": "7.214834064389613",
        "mean_motion": ".4262683053087972",
        "equinox": "J2000",
        "orbit_class": {
            "orbit_class_type": "AMO",
            "orbit_class_description": "Near-Earth asteroid orbits similar to that of 1221 Amor",
            "orbit_class_range": "1.017 AU < q (perihelion) < 1.3 AU"
        }
    },
    "is_sentry_object": false
}